ARIANE 40 R/B           
1 20443U 90005H   26036.63892187  .00000419  00000+0  14681-3 0  9994
2 20443  98.3152  98.2440 0009035 304.8051  55.2287 14.39848992888198
DELTA 2 R/B(1)          
1 20453U 90008B   26036.30970739  .00088442  00000+0  11788-2 0  9998
2 20453  35.6065  26.6230 0096234 316.9901  42.3342 15.51488253921094
COSMOS 2058             
1 20465U 90010A   26036.59968947  .00005880  00000+0  34965-3 0  9991
2 20465  82.4633  79.0409 0012094  86.3650 273.8963 15.11025810937391
SL-14 R/B               
1 20466U 90010B   26036.71694181  .00000716  00000+0  83841-4 0  9993
2 20466  82.5033 297.4216 0021019  48.2185 312.0822 14.83540866923741
SL-14 R/B               
1 20511U 90018B   26036.56886576  .00000573  00000+0  68977-4 0  9990
2 20511  82.5185 253.1196 0015951 192.9252 167.1556 14.82111913917827
HST                     
1 20580U 90037B   26036.70367850  .00010539  00000+0  35578-3 0  9995
2 20580  28.4665 258.1179 0001948 113.1568 246.9233 15.28970067768418
SL-16 R/B               
1 20625U 90046B   26036.60310427  .00000050  00000+0  50568-4 0  9996
2 20625  70.9998   5.2981 0014553 344.2007  15.8660 14.15005196843858
COSMOS 2084             
1 20663U 90055A   26036.57503208  .00004122  00000+0  29808-3 0  9991
2 20663  62.7896  85.0929 0022181 183.3057 176.7900 15.05443605931489
SL-6 R/B(2)             
1 20666U 90055D   26036.31473833  .00004162  00000+0  31756-3 0  9995
2 20666  62.7851   3.9306 0019951 337.5810  22.4416 15.03418145933325
SL-8 R/B                
1 20775U 90078B   26036.64488018  .00021588  00000+0  63811-3 0  9996
2 20775  82.9024 280.1044 0367271 121.3590 242.4120 14.87999668804536
SL-8 R/B                
1 21088U 91006B   26036.51923363  .00000001  00000+0 -15021-4 0  9998
2 21088  82.9426 193.9640 0023531 123.8706 298.8503 13.77491884759643
OKEAN-3                 
1 21397U 91039A   26036.62541326  .00005481  00000+0  38793-3 0  9990
2 21397  82.5182   7.8968 0016410  81.7140 278.5947 15.04550322860217
COSMOS 2151             
1 21422U 91042A   26036.66414663  .00002841  00000+0  22619-3 0  9997
2 21422  82.4967 114.5681 0013074 161.3266 198.8440 14.99980845858399
SL-14 R/B               
1 21423U 91042B   26036.68267448  .00000549  00000+0  66501-4 0  9999
2 21423  82.4901 250.2036 0016805 351.4925   8.6002 14.81799310848330
ERS-1                   
1 21574U 91050A   26036.65251671  .00000529  00000+0  18401-3 0  9996
2 21574  98.7896  54.0815 0030985 298.2671  61.5390 14.39423060811120
ARIANE 40 R/B           
1 21610U 91050F   26036.64093968  .00000472  00000+0  15397-3 0  9997
2 21610  98.2079  90.0696 0003640 152.7941 207.3441 14.42869728814374
INTERCOSMOS 25          
1 21819U 91086A   26036.21050880  .00000954  00000+0  18452-3 0  9996
2 21819  82.6088 329.6349 1486612 186.9062 170.9281 12.11910767492751
SL-8 R/B                
1 21876U 92008B   26036.71603615  .00000081  00000+0  67790-4 0  9990
2 21876  82.9270 291.5637 0033679 222.5926 147.6222 13.75969515705022
SL-8 R/B                
1 21938U 92020B   26036.38933360  .00000133  00000+0  12184-3 0  9993
2 21938  82.9324 177.7364 0029506  30.3498 358.0231 13.75544445696697
USA 81                  
1 21949U 92023A   26036.66383387  .00000312  00000+0  10814-3 0  9994
2 21949  85.0120 149.9068 0002559 106.4623 253.6852 14.32355852 90203
COSMOS 2219             
1 22219U 92076A   26036.61793091 -.00000151  00000+0 -54219-4 0  9996
2 22219  71.0587  85.1175 0020469 251.3623 108.5277 14.14077153713842
SL-16 R/B               
1 22220U 92076B   26036.02629806  .00000268  00000+0  15727-3 0  9992
2 22220  70.9982 257.1797 0011761 154.0697 356.0770 14.16854195717200
COSMOS 2221             
1 22236U 92080A   26036.73529426  .00003188  00000+0  28112-3 0  9995
2 22236  82.5061 309.6830 0013095 304.8898  55.1092 14.96071718776013
SL-16 R/B               
1 22285U 92093B   26036.58453789 -.00000180  00000+0 -67738-4 0  9993
2 22285  71.0203  71.6659 0005073 327.1779  32.9028 14.15441589708617
COSMOS 2228             
1 22286U 92094A   26036.63885128  .00003425  00000+0  29405-3 0  9998
2 22286  82.5157 268.0016 0019302  52.4896 307.8077 14.97043773771262
SL-16 R/B               
1 22566U 93016B   26036.69242938 -.00000013  00000+0  17877-4 0  9998
2 22566  71.0076 282.3888 0010104 358.4015   1.7074 14.15304100697645
COSMOS 2242             
1 22626U 93024A   26036.67439130  .00003603  00000+0  31470-3 0  9995
2 22626  82.5196 297.3367 0017790  55.8479 304.4427 14.96415256775602
SL-16 R/B               
1 22803U 93059B   26036.57414164  .00000298  00000+0  17109-3 0  9999
2 22803  70.9892  78.8551 0019482 260.4105  99.4817 14.17226109674983
ARIANE 40 R/B           
1 22830U 93061H   26036.71603131  .00000320  00000+0  13290-3 0  9995
2 22830  98.4984 106.2238 0011004  24.9558 335.2156 14.32843978689524
COSMOS 2278             
1 23087U 94023A   26036.70114123 -.00000180  00000+0 -69340-4 0  9990
2 23087  71.0504 242.0235 0006483  73.7158 286.4677 14.14364572640286
SL-16 R/B               
1 23088U 94023B   26036.69143846 -.00000056  00000+0 -44594-5 0  9990
2 23088  70.9999 138.0886 0004440 315.1252  44.9511 14.15003659641561
SL-16 R/B               
1 23343U 94074B   26036.67617682  .00000766  00000+0  10936-3 0  9999
2 23343  97.7150  68.7846 0005902 337.9793 137.8887 14.79369776682515
SL-16 R/B               
1 23405U 94077B   26036.04956519 -.00000078  00000+0 -15244-4 0  9993
2 23405  70.9814  61.1584 0004460 240.2213 119.8466 14.15556609611610
ARIANE 40+ R/B          
1 23561U 95021B   26036.65169806  .00000468  00000+0  16335-3 0  9990
2 23561  98.4563 108.5578 0005901 231.1949 250.1388 14.39748767614635
SL-16 R/B               
1 23705U 95058B   26036.69096839  .00000297  00000+0  17639-3 0  9997
2 23705  71.0189 247.4357 0012470 178.0548 182.0626 14.15490583563328
SL-16 R/B               
1 24298U 96051B   26036.72976862  .00000085  00000+0  72920-4 0  9996
2 24298  70.7566 242.8873 0017747 192.5720 167.4960 14.12406578517132
ORBVIEW 2 (SEASTAR)     
1 24883U 97037A   26036.70316170  .00000473  00000+0  18082-3 0  9998
2 24883  98.8511 200.1776 0002821 137.3437 222.7967 14.35469816503889
SL-16 R/B               
1 25400U 98043G   26036.59668481  .00000137  00000+0  76063-4 0  9995
2 25400  98.8203 349.7438 0010879 105.8130 254.4250 14.26042040434415
SL-16 R/B               
1 25407U 98045B   26036.64699338 -.00000182  00000+0 -67561-4 0  9990
2 25407  71.0087 248.9592 0005242  68.0707 292.0973 14.16185336422562
ISS (ZARYA)             
1 25544U 98067A   26036.50214262  .00012860  00000+0  24571-3 0  9997
2 25544  51.6316 231.4727 0011154  67.3664 292.8503 15.48414003551341
CZ-4B R/B               
1 25732U 99025C   26036.57708524  .00000072  00000+0  55532-4 0  9991
2 25732  98.6689  81.6100 0038174  77.8220  40.6722 14.18258888383617
OKEAN-O                 
1 25860U 99039A   26036.67971811  .00001078  00000+0  14841-3 0  9994
2 25860  97.9511  96.8853 0001925  88.8495 271.2938 14.80282518429650
SL-16 R/B               
1 25861U 99039B   26036.62232112  .00000923  00000+0  12390-3 0  9999
2 25861  98.0033  95.7551 0014878   6.9867 353.1550 14.81686117432119
DELTA 2 R/B             
1 25876U 99041E   26036.51380638  .00003074  00000+0  53163-3 0  9996
2 25876  51.7643  69.7686 0502399 253.3695 101.1518 14.11705587358483
HELIOS 1B               
1 25977U 99064A   26036.69712565  .00002822  00000+0  31723-3 0  9998
2 25977  98.1728 297.9960 0001923 119.9222 240.2185 14.87565115680504
TERRA                   
1 25994U 99068A   26036.74109887  .00000715  00000+0  15486-3 0  9991
2 25994  97.9660  91.3853 0000970 294.5526 176.2664 14.60979933390416
SL-16 R/B               
1 26070U 00006B   26036.72471589  .00000059  00000+0  54046-4 0  9997
2 26070  71.0029 165.0465 0018450 235.0744 124.8647 14.15820742344036
TITAN 4B R/B            
1 26474U 00047B   26036.69081829  .00006073  00000+0  38220-3 0  9997
2 26474  67.9896 130.4718 0036936  74.8507 285.6723 15.09296430388081
ENVISAT                 
1 27386U 02009A   26036.76642974  .00000234  00000+0  89744-4 0  9993
2 27386  98.3675 351.1350 0001295  91.1436 329.1473 14.39024931254584
IDEFIX & ARIANE 42P R/B 
1 27422U 02021B   26036.68202854  .00000490  00000+0  20268-3 0  9997
2 27422  98.5839 335.6776 0010717 283.9470  76.0521 14.31002898239446
AQUA                    
1 27424U 02022A   26036.72894748  .00001714  00000+0  35252-3 0  9993
2 27424  98.4119   3.5266 0001613  55.4228  43.7208 14.61897451264060
CZ-4B R/B               
1 27432U 02024C   26036.68665001  .00000073  00000+0  60230-4 0  9999
2 27432  98.8907  90.2437 0051113 113.5865 358.2997 14.14541906224710
MIDORI II (ADEOS-II)    
1 27597U 02056A   26036.60123257  .00000538  00000+0  22947-3 0  9998
2 27597  98.7715 354.8694 0002165  88.0251 272.1178 14.29260498205714
H-2A R/B                
1 27601U 02056E   26036.74528063  .00000526  00000+0  19941-3 0  9990
2 27601  98.3145 358.3386 0068995 256.6792 167.6519 14.33737860209534
CZ-4B R/B               
1 28059U 03049C   26036.68128603  .00000805  00000+0  19601-3 0  9993
2 28059  98.6843  30.3397 0047620 330.7033  29.1494 14.54984744181949
CZ-2C R/B               
1 28222U 04012C   26036.71818071  .00067448  00000+0  79822-3 0  9992
2 28222  97.7308  99.0641 0016263  70.4237 289.8774 15.60892307199287
SL-16 R/B               
1 28353U 04021B   26036.70703682  .00000022  00000+0  36439-4 0  9990
2 28353  71.0005 299.6138 0002860  89.8600 270.2850 14.14589412118318
CZ-4B R/B               
1 28415U 04035C   26036.64008030  .00013571  00000+0  48365-3 0  9995
2 28415  97.3544  71.2735 0034254  82.9651 277.5482 15.28466215175017
CZ-2C R/B               
1 28480U 04046B   26036.65152168  .00000250  00000+0  10878-3 0  9990
2 28480  98.1997 313.6249 0138228 249.5007 109.1293 14.26980646103933
